[{"OBJECT_NAME":"ION SCV-004","OBJECT_ID":"2022-002K","EPOCH":"2026-03-09T16:32:03.244416","MEAN_MOTION":15.29369331,"ECCENTRICITY":0.00072157,"INCLINATION":97.2961,"RA_OF_ASC_NODE":128.2294,"ARG_OF_PERICENTER":1.6783,"MEAN_ANOMALY":358.448,"EPHEMERIS_TYPE":0,"CLASSIFICATION_TYPE":"U","NORAD_CAT_ID":50993,"ELEMENT_SET_NO":999,"REV_AT_EPOCH":23008,"BSTAR":0.00023198467,"MEAN_MOTION_DOT":6.538e-5,"MEAN_MOTION_DDOT":0},{"OBJECT_NAME":"STARLINK-32829","OBJECT_ID":"2025-034W","EPOCH":"2026-03-09T23:13:03.328896","MEAN_MOTION":15.30206104,"ECCENTRICITY":0.00010361,"INCLINATION":53.1583,"RA_OF_ASC_NODE":270.0223,"ARG_OF_PERICENTER":79.4349,"MEAN_ANOMALY":280.6768,"EPHEMERIS_TYPE":0,"CLASSIFICATION_TYPE":"U","NORAD_CAT_ID":63049,"ELEMENT_SET_NO":999,"REV_AT_EPOCH":5894,"BSTAR":0.0012548863,"MEAN_MOTION_DOT":0.00036999,"MEAN_MOTION_DDOT":0}]
